{
  "dealerships": [
    {
      "id": 1,
      "city": "El Paso",
      "state": "Texas",
      "st": "TX",
      "address": "3 Nova Court",
      "zip": "88563",
      "lat": 31.6948,
      "long": -106.3,
      "short_name": "Holdlamis",
      "full_name": "Holdlamis Car Dealership"
    },
    {
      "id": 2,
      "city": "Minneapolis",
      "state": "Minnesota",
      "st": "MN",
      "address": "6337 Butternut Crossing",
      "zip": "55402",
      "lat": 44.9762,
      "long": -93.2759,
      "short_name": "Temp",
      "full_name": "Temp Car Dealership"
    },
    {
      "id": 3,
      "city": "Birmingham",
      "state": "Alabama",
      "st": "AL",
      "address": "9477 Twin Pines Center",
      "zip": "35285",
      "lat": 33.5446,
      "long": -86.9292,
      "short_name": "Sub-Ex",
      "full_name": "Sub-Ex Car Dealership"
    },
    {
      "id": 4,
      "city": "Dallas",
      "state": "Texas",
      "st": "TX",
      "address": "85800 Hazelcrest Circle",
      "zip": "75241",
      "lat": 32.6722,
      "long": -96.7774,
      "short_name": "Solarbreeze",
      "full_name": "Solarbreeze Car Dealership"
    },
    {
      "id": 5,
      "city": "Baltimore",
      "state": "Maryland",
      "st": "MD",
      "address": "93 Golf Course Pass",
      "zip": "21203",
      "lat": 39.2847,
      "long": -76.6205,
      "short_name": "Regrant",
      "full_name": "Regrant Car Dealership"
    },
    {
      "id": 6,
      "city": "Wilkes Barre",
      "state": "Pennsylvania",
      "st": "PA",
      "address": "2 Burrows Hill",
      "zip": "18763",
      "lat": 41.2722,
      "long": -75.8801,
      "short_name": "Stronghold",
      "full_name": "Stronghold Car Dealership"
    },
    {
      "id": 7,
      "city": "Pueblo",
      "state": "Colorado",
      "st": "CO",
      "address": "9 Cambridge Park",
      "zip": "81010",
      "lat": 38.1286,
      "long": -104.5523,
      "short_name": "Job",
      "full_name": "Job Car Dealership"
    },
    {
      "id": 8,
      "city": "Topeka",
      "state": "Kansas",
      "st": "KS",
      "address": "288 Larry Place",
      "zip": "66642",
      "lat": 39.0429,
      "long": -95.7697,
      "short_name": "Bytecard",
      "full_name": "Bytecard Car Dealership"
    },
    {
      "id": 9,
      "city": "Dallas",
      "state": "Texas",
      "st": "TX",
      "address": "253 Hanson Junction",
      "zip": "75216",
      "lat": 32.7086,
      "long": -96.7955,
      "short_name": "Job",
      "full_name": "Job Car Dealership"
    },
    {
      "id": 10,
      "city": "Washington",
      "state": "District of Columbia",
      "st": "DC",
      "address": "108 Memorial Pass",
      "zip": "20005",
      "lat": 38.9067,
      "long": -77.0312,
      "short_name": "Alphazap",
      "full_name": "Alphazap Car Dealership"
    },
    {
      "id": 11,
      "city": "Carol Stream",
      "state": "Illinois",
      "st": "IL",
      "address": "8108 Dryden Court",
      "zip": "60351",
      "lat": 41.9166,
      "long": -88.1208,
      "short_name": "Rank",
      "full_name": "Rank Car Dealership"
    },
    {
      "id": 12,
      "city": "Silver Spring",
      "state": "Maryland",
      "st": "MD",
      "address": "168 Pawling Lane",
      "zip": "20918",
      "lat": 39.144,
      "long": -77.2076,
      "short_name": "Tin",
      "full_name": "Tin Car Dealership"
    },
    {
      "id": 13,
      "city": "Baltimore",
      "state": "Maryland",
      "st": "MD",
      "address": "452 Fair Oaks Drive",
      "zip": "21275",
      "lat": 39.2847,
      "long": -76.6205,
      "short_name": "Y-Solowarm",
      "full_name": "Y-Solowarm Car Dealership"
    },
    {
      "id": 14,
      "city": "San Francisco",
      "state": "California",
      "st": "CA",
      "address": "2109 Scott Parkway",
      "zip": "94147",
      "lat": 37.7848,
      "long": -122.7278,
      "short_name": "It",
      "full_name": "It Car Dealership"
    },
    {
      "id": 15,
      "city": "San Antonio",
      "state": "Texas",
      "st": "TX",
      "address": "5057 Pankratz Hill",
      "zip": "78225",
      "lat": 29.3875,
      "long": -98.5245,
      "short_name": "Tempsoft",
      "full_name": "Tempsoft Car Dealership"
    },
    {
      "id": 16,
      "city": "El Paso",
      "state": "Texas",
      "st": "TX",
      "address": "0 Rieder Trail",
      "zip": "79994",
      "lat": 31.6948,
      "long": -106.3,
      "short_name": "Treeflex",
      "full_name": "Treeflex Car Dealership"
    },
    {
      "id": 17,
      "city": "San Jose",
      "state": "California",
      "st": "CA",
      "address": "7670 American Ash Drive",
      "zip": "95138",
      "lat": 37.2602,
      "long": -121.7709,
      "short_name": "Home Ing",
      "full_name": "Home Ing Car Dealership"
    },
    {
      "id": 18,
      "city": "Whittier",
      "state": "California",
      "st": "CA",
      "address": "4 Pearson Avenue",
      "zip": "90605",
      "lat": 33.9413,
      "long": -118.0356,
      "short_name": "Bitchip",
      "full_name": "Bitchip Car Dealership"
    },
    {
      "id": 19,
      "city": "Hialeah",
      "state": "Florida",
      "st": "FL",
      "address": "93 Monument Circle",
      "zip": "33013",
      "lat": 25.8594,
      "long": -80.2725,
      "short_name": "Otcom",
      "full_name": "Otcom Car Dealership"
    },
    {
      "id": 20,
      "city": "Detroit",
      "state": "Michigan",
      "st": "MI",
      "address": "4580 Waubesa Lane",
      "zip": "48224",
      "lat": 42.4098,
      "long": -82.9441,
      "short_name": "Subin",
      "full_name": "Subin Car Dealership"
    }
  ]
}
